[{"OBJECT_NAME":"STARLINK-6197","OBJECT_ID":"2023-078A","EPOCH":"2026-03-09T22:55:29.940960","MEAN_MOTION":15.17018833,"ECCENTRICITY":0.00072438,"INCLINATION":69.9932,"RA_OF_ASC_NODE":349.0269,"ARG_OF_PERICENTER":212.47,"MEAN_ANOMALY":147.6024,"EPHEMERIS_TYPE":0,"CLASSIFICATION_TYPE":"U","NORAD_CAT_ID":56767,"ELEMENT_SET_NO":999,"REV_AT_EPOCH":15259,"BSTAR":0.00062350917,"MEAN_MOTION_DOT":0.00012272,"MEAN_MOTION_DDOT":0},{"OBJECT_NAME":"CZ-6A DEB","OBJECT_ID":"2022-151AAS","EPOCH":"2026-03-09T03:45:24.122016","MEAN_MOTION":15.06999256,"ECCENTRICITY":0.00393195,"INCLINATION":98.6364,"RA_OF_ASC_NODE":147.7741,"ARG_OF_PERICENTER":181.1546,"MEAN_ANOMALY":178.9594,"EPHEMERIS_TYPE":0,"CLASSIFICATION_TYPE":"U","NORAD_CAT_ID":55894,"ELEMENT_SET_NO":999,"REV_AT_EPOCH":17150,"BSTAR":0.0072812999,"MEAN_MOTION_DOT":0.00112507,"MEAN_MOTION_DDOT":0}]
